STARLINK-37683          
1 69367U 26123Q   26168.91668981 -.01366078  00000+0 -95883-2 0  9993
2 69367  53.1587 237.6760 0000995  52.0364  97.2295 15.76204852  3272
STARLINK-37687          
1 69368U 26123R   26168.91668981 -.00013492  00000+0 -64921-4 0  9993
2 69368  53.1582 237.6096 0000973  86.0145  95.6682 15.80873745  3270
STARLINK-37631          
1 69369U 26123S   26168.91668981 -.00085439  00000+0 -43289-3 0  9997
2 69369  53.1582 237.6190 0001099  96.1695  81.0006 15.80908918  3324
STARLINK-37673          
1 69370U 26123T   26168.91668981  .00006379  00000+0  35842-4 0  9990
2 69370  53.1578 237.6137 0001151  93.0981  86.5502 15.80867637  3328
STARLINK-37645          
1 69371U 26123U   26168.91668981 -.00022268  00000+0 -10954-3 0  9994
2 69371  53.1577 237.6355 0000923  74.6078  94.3194 15.80878873  3326
STARLINK-37688          
1 69372U 26123V   26168.91668981 -.00092350  00000+0 -46852-3 0  9990
2 69372  53.1574 237.6043 0000932  89.5151  94.0831 15.80911825  3325
STARLINK-37685          
1 69373U 26123W   26168.91668981 -.00014784  00000+0 -71470-4 0  9991
2 69373  53.1575 237.5985 0001105  87.1169  99.3726 15.80878233  3323
STARLINK-37632          
1 69374U 26123X   26168.91668981 -.00089156  00000+0 -45195-3 0  9991
2 69374  53.1576 237.5895 0000997  83.7604 106.9320 15.80915041  3277
STARLINK-37454          
1 69375U 26123Y   26168.91668981 -.00141903  00000+0 -72547-3 0  9992
2 69375  53.1573 237.5764 0001036  91.3056 105.6483 15.80926071  3418
STARLINK-37485          
1 69376U 26123Z   26168.91668981 -.00006558  00000+0 -29712-4 0  9996
2 69376  53.1575 237.5673 0001088  85.9120 115.2503 15.80872503  3418
STARLINK-37439          
1 69377U 26123AA  26168.91668981 -.00105346  00000+0 -53557-3 0  9995
2 69377  53.1576 237.4831 0001085  91.1896 150.5036 15.80918915  3276
STARLINK-37376          
1 69378U 26123AB  26168.91668981 -.01848982  00000+0 -12187-1 0  9999
2 69378  53.1588 237.5200 0001199  76.6396 147.0514 15.78020431  3412
STARLINK-37383          
1 69379U 26123AC  26168.91668981  .00017612  00000+0  92634-4 0  9993
2 69379  53.1575 237.4397 0001162  84.4854 177.3231 15.80861703  3411
STARLINK-37411          
1 69380U 26123AD  26168.91668981 -.00064622  00000+0 -32600-3 0  9996
2 69380  53.1574 237.4982 0001005  96.9535 137.0065 15.80893982  3414
STARLINK-37427          
1 69381U 26123AE  26168.91668981  .00147745  00000+0  73892-3 0  9991
2 69381  53.1577 237.4501 0001155  93.2738 163.9167 15.80885429  3324
QIANFAN-165             
1 69382U 26124A   26168.89138789 -.01695000  00000+0 -10223+1 0  9999
2 69382  88.9980   1.9604 0007743 111.2306 248.9707 14.10714906  1918
QIANFAN-166             
1 69383U 26124B   26168.88623625 -.01791255  00000+0 -10445+1 0  9992
2 69383  88.9979   1.9595 0005895 114.6383 245.5418 14.12796918  1911
QIANFAN-167             
1 69384U 26124C   26168.95785288 -.01790806  00000+0 -10646+1 0  9999
2 69384  88.9978   1.9514 0007050 144.5550 215.6105 14.11737048  1925
QIANFAN-168             
1 69385U 26124D   26168.88222813 -.01763621  00000+0 -10149+1 0  9995
2 69385  88.9977   1.9586 0005514 143.5457 216.6106 14.13454875  1919
QIANFAN-169             
1 69386U 26124E   26168.95022122 -.01780505  00000+0 -10170+1 0  9999
2 69386  88.9978   1.9505 0004257 179.8940 180.2248 14.13905018  1928
QIANFAN-170             
1 69387U 26124F   26168.87667919 -.01793923  00000+0 -10064+1 0  9990
2 69387  88.9977   1.9578 0003865 152.5709 207.5683 14.14909138  1916
QIANFAN-171             
1 69388U 26124G   26168.94386007 -.01830609  00000+0 -10020+1 0  9990
2 69388  88.9978   1.9494 0005113 340.6088  19.4904 14.15667998  1926
QIANFAN-172             
1 69389U 26124H   26168.94530572 -.01875781  00000+0 -10285+1 0  9992
2 69389  88.9978   1.9495 0006805 184.8837 175.2286 14.15660892  1927
QIANFAN-173             
1 69390U 26124J   26168.94234883 -.01848936  00000+0 -10006+1 0  9993
2 69390  88.9978   1.9493 0010396 128.1275 232.0852 14.16297139  1926
QIANFAN-174             
1 69391U 26124K   26168.93948348 -.01937666  00000+0 -10356+1 0  9998
2 69391  88.9977   1.9485 0003131 145.1330 215.0064 14.17176253  1927
QIANFAN-175             
1 69392U 26124L   26168.93893205 -.01947564  00000+0 -10318+1 0  9996
2 69392  88.9976   1.9485 0002877 296.3226  63.7667 14.17667947  1928
QIANFAN-176             
1 69393U 26124M   26168.93725623 -.01960480  00000+0 -10352+1 0  9995
2 69393  88.9974   1.9474 0019547 235.8247 124.1089 14.17773395  1923
QIANFAN-177             
1 69394U 26124N   26168.79406115 -.01855164  00000+0 -96559+0 0  9996
2 69394  88.9977   1.9642 0007017 187.8301 172.2780 14.18417375  1904
QIANFAN-178             
1 69395U 26124P   26168.86525955 -.01874969  00000+0 -98250+0 0  9993
2 69395  88.9979   1.9563 0004999 210.2961 149.7940 14.18102910  1912
QIANFAN-179             
1 69396U 26124Q   26168.79279317 -.01911754  00000+0 -99210+0 0  9995
2 69396  88.9977   1.9641 0002786 281.8249  78.2628 14.18702308  1908
