OBJECT_NAME,OBJECT_ID,EPOCH,MEAN_MOTION,ECCENTRICITY,INCLINATION,RA_OF_ASC_NODE,ARG_OF_PERICENTER,MEAN_ANOMALY,EPHEMERIS_TYPE,CLASSIFICATION_TYPE,NORAD_CAT_ID,ELEMENT_SET_NO,REV_AT_EPOCH,BSTAR,MEAN_MOTION_DOT,MEAN_MOTION_DDOT
STARLINK-37683,2026-123Q,2026-06-17T22:00:01.999584,15.76204852,.00009955,53.1587,237.6760,52.0364,97.2295,0,U,69367,999,327,-.95883185E-2,-.1366078E-1,0
STARLINK-37687,2026-123R,2026-06-17T22:00:01.999584,15.80873745,.00009731,53.1582,237.6096,86.0145,95.6682,0,U,69368,999,327,-.64920914E-4,-.13492E-3,0
STARLINK-37631,2026-123S,2026-06-17T22:00:01.999584,15.80908918,.00010997,53.1582,237.6190,96.1695,81.0006,0,U,69369,999,332,-.43289413E-3,-.85439E-3,0
STARLINK-37673,2026-123T,2026-06-17T22:00:01.999584,15.80867637,.00011515,53.1578,237.6137,93.0981,86.5502,0,U,69370,999,332,.35842365E-4,.6379E-4,0
STARLINK-37645,2026-123U,2026-06-17T22:00:01.999584,15.80878873,.00009238,53.1577,237.6355,74.6078,94.3194,0,U,69371,999,332,-.10953985E-3,-.22268E-3,0
STARLINK-37688,2026-123V,2026-06-17T22:00:01.999584,15.80911825,.0000932,53.1574,237.6043,89.5151,94.0831,0,U,69372,999,332,-.46851817E-3,-.9235E-3,0
STARLINK-37685,2026-123W,2026-06-17T22:00:01.999584,15.80878233,.00011052,53.1575,237.5985,87.1169,99.3726,0,U,69373,999,332,-.71469664E-4,-.14784E-3,0
STARLINK-37632,2026-123X,2026-06-17T22:00:01.999584,15.80915041,.00009971,53.1576,237.5895,83.7604,106.9320,0,U,69374,999,327,-.45195217E-3,-.89156E-3,0
STARLINK-37454,2026-123Y,2026-06-17T22:00:01.999584,15.80926071,.00010364,53.1573,237.5764,91.3056,105.6483,0,U,69375,999,341,-.72546873E-3,-.141903E-2,0
STARLINK-37485,2026-123Z,2026-06-17T22:00:01.999584,15.80872503,.00010884,53.1575,237.5673,85.9120,115.2503,0,U,69376,999,341,-.29711535E-4,-.6558E-4,0
STARLINK-37439,2026-123AA,2026-06-17T22:00:01.999584,15.80918915,.00010853,53.1576,237.4831,91.1896,150.5036,0,U,69377,999,327,-.53556659E-3,-.105346E-2,0
STARLINK-37376,2026-123AB,2026-06-17T22:00:01.999584,15.78020431,.00011994,53.1588,237.5200,76.6396,147.0514,0,U,69378,999,341,-.12186555E-1,-.1848982E-1,0
STARLINK-37383,2026-123AC,2026-06-17T22:00:01.999584,15.80861703,.00011623,53.1575,237.4397,84.4854,177.3231,0,U,69379,999,341,.92633751E-4,.17612E-3,0
STARLINK-37411,2026-123AD,2026-06-17T22:00:01.999584,15.80893982,.00010052,53.1574,237.4982,96.9535,137.0065,0,U,69380,999,341,-.32599826E-3,-.64622E-3,0
STARLINK-37427,2026-123AE,2026-06-17T22:00:01.999584,15.80885429,.00011552,53.1577,237.4501,93.2738,163.9167,0,U,69381,999,332,.73892113E-3,.147745E-2,0
QIANFAN-165,2026-124A,2026-06-17T21:23:35.913696,14.10714906,.00077435,88.9980,1.9604,111.2306,248.9707,0,U,69382,999,191,-.10223044E+1,-.1695E-1,0
QIANFAN-166,2026-124B,2026-06-17T21:16:10.812000,14.12796918,.00058957,88.9979,1.9595,114.6383,245.5418,0,U,69383,999,191,-.10445436E+1,-.1791255E-1,0
QIANFAN-167,2026-124C,2026-06-17T22:59:18.488832,14.11737048,.00070508,88.9978,1.9514,144.5550,215.6105,0,U,69384,999,192,-.1064649E+1,-.1790806E-1,0
QIANFAN-168,2026-124D,2026-06-17T21:10:24.510432,14.13454875,.00055141,88.9977,1.9586,143.5457,216.6106,0,U,69385,999,191,-.10148583E+1,-.1763621E-1,0
QIANFAN-169,2026-124E,2026-06-17T22:48:19.113408,14.13905018,.00042575,88.9978,1.9505,179.8940,180.2248,0,U,69386,999,192,-.10169503E+1,-.1780505E-1,0
QIANFAN-170,2026-124F,2026-06-17T21:02:25.082016,14.14909138,.00038658,88.9977,1.9578,152.5709,207.5683,0,U,69387,999,191,-.10064481E+1,-.1793923E-1,0
QIANFAN-171,2026-124G,2026-06-17T22:39:09.510048,14.15667998,.00051139,88.9978,1.9494,340.6088,19.4904,0,U,69388,999,192,-.10019906E+1,-.1830609E-1,0
QIANFAN-172,2026-124H,2026-06-17T22:41:14.414208,14.15660892,.00068056,88.9978,1.9495,184.8837,175.2286,0,U,69389,999,192,-.10285057E+1,-.1875781E-1,0
QIANFAN-173,2026-124J,2026-06-17T22:36:58.938912,14.16297139,.00103966,88.9978,1.9493,128.1275,232.0852,0,U,69390,999,192,-.1000577E+1,-.1848936E-1,0
QIANFAN-174,2026-124K,2026-06-17T22:32:51.372672,14.17176253,.00031313,88.9977,1.9485,145.1330,215.0064,0,U,69391,999,192,-.10355823E+1,-.1937666E-1,0
QIANFAN-175,2026-124L,2026-06-17T22:32:03.729120,14.17667947,.00028776,88.9976,1.9485,296.3226,63.7667,0,U,69392,999,192,-.10317864E+1,-.1947564E-1,0
QIANFAN-176,2026-124M,2026-06-17T22:29:38.938272,14.17773395,.00195471,88.9974,1.9474,235.8247,124.1089,0,U,69393,999,192,-.1035191E+1,-.196048E-1,0
QIANFAN-177,2026-124N,2026-06-17T19:03:26.883360,14.18417375,.00070173,88.9977,1.9642,187.8301,172.2780,0,U,69394,999,190,-.96558546E+0,-.1855164E-1,0
QIANFAN-178,2026-124P,2026-06-17T20:45:58.425120,14.18102910,.00049997,88.9979,1.9563,210.2961,149.7940,0,U,69395,999,191,-.98249964E+0,-.1874969E-1,0
QIANFAN-179,2026-124Q,2026-06-17T19:01:37.329888,14.18702308,.00027869,88.9977,1.9641,281.8249,78.2628,0,U,69396,999,190,-.99210066E+0,-.1911754E-1,0
